CTC2_L_00337016-03
1 75161U 23970TN  26070.40846065  .00000000  00000+0  00000-0 0  9998
2 75161  95.0000 180.0000 0000000   0.0000   0.0000 13.56072486    18
CTC2_L_00337016-04
1 75162U 23377NU  26070.40846065  .00000000  00000+0  00000-0 0  9990
2 75162  95.0000 180.0000 0000000   0.0000  90.0000 13.56072486    18
CTC2_L_00337017-01
1 75163U 25381FG  26070.40846065  .00000000  00000+0  00000-0 0  9998
2 75163  95.0000 192.0000 0000000   0.0000 192.0000 13.56072486    15
CTC2_L_00337017-02
1 75164U 24008CT  26070.40846065  .00000000  00000+0  00000-0 0  9994
2 75164  95.0000 192.0000 0000000   0.0000 282.0000 13.56072486    16
CTC2_L_00337017-03
1 75165U 24806GY  26070.40846065  .00000000  00000+0  00000-0 0  9991
2 75165  95.0000 192.0000 0000000   0.0000  12.0000 13.56072486    18
CTC2_L_00337017-04
1 75166U 23599UE  26070.40846065  .00000000  00000+0  00000-0 0  9990
2 75166  95.0000 192.0000 0000000   0.0000 102.0000 13.56072486    19
CTC2_L_00337018-01
1 75167U 24965RJ  26070.40846065  .00000000  00000+0  00000-0 0  9999
2 75167  95.0000 204.0000 0000000   0.0000 204.0000 13.56072486    17
CTC2_L_00337018-02
1 75168U 25495AY  26070.40846065  .00000000  00000+0  00000-0 0  9999
2 75168  95.0000 204.0000 0000000   0.0000 294.0000 13.56072486    17
CTC2_L_00337018-03
1 75169U 24185GT  26070.40846065  .00000000  00000+0  00000-0 0  9995
2 75169  95.0000 204.0000 0000000   0.0000  24.0000 13.56072486    19
CTC2_L_00337018-04
1 75170U 26934VA  26070.40846065  .00000000  00000+0  00000-0 0  9991
2 75170  95.0000 204.0000 0000000   0.0000 114.0000 13.56072486    11
CTC2_L_00337019-01
1 75171U 24669WY  26070.40846065  .00000000  00000+0  00000-0 0  9995
2 75171  95.0000 216.0000 0000000   0.0000 216.0000 13.56072486    18
CTC2_L_00337019-02
1 75172U 24544RN  26070.40846065  .00000000  00000+0  00000-0 0  9998
2 75172  95.0000 216.0000 0000000   0.0000 306.0000 13.56072486    19
CTC2_L_00337019-03
1 75173U 25964HH  26070.40846065  .00000000  00000+0  00000-0 0  9996
2 75173  95.0000 216.0000 0000000   0.0000  36.0000 13.56072486    10
CTC2_L_00337019-04
1 75174U 24007BO  26070.40846065  .00000000  00000+0  00000-0 0  9994
2 75174  95.0000 216.0000 0000000   0.0000 126.0000 13.56072486    11
CTC2_L_00337020-01
1 75175U 23349NB  26070.40846065  .00000000  00000+0  00000-0 0  9993
2 75175  95.0000 228.0000 0000000   0.0000 228.0000 13.56072486    18
CTC2_L_00337020-02
1 75176U 22249HZ  26070.40846065  .00000000  00000+0  00000-0 0  9992
2 75176  95.0000 228.0000 0000000   0.0000 318.0000 13.56072486    19
CTC2_L_00337020-03
1 75177U 24796WP  26070.40846065  .00000000  00000+0  00000-0 0  9992
2 75177  95.0000 228.0000 0000000   0.0000  48.0000 13.56072486    10
CTC2_L_00337020-04
1 75178U 25679X   26070.40846065  .00000000  00000+0  00000-0 0  9994
2 75178  95.0000 228.0000 0000000   0.0000 138.0000 13.56072486    11
CTC2_L_00337021-01
1 75179U 24252UU  26070.40846065  .00000000  00000+0  00000-0 0  9991
2 75179  95.0000 240.0000 0000000   0.0000 240.0000 13.56072486    10
CTC2_L_00337021-02
1 75180U 25395U   26070.40846065  .00000000  00000+0  00000-0 0  9992
2 75180  95.0000 240.0000 0000000   0.0000 330.0000 13.56072486    12
CTC2_L_00337021-03
1 75181U 23141RC  26070.40846065  .00000000  00000+0  00000-0 0  9990
2 75181  95.0000 240.0000 0000000   0.0000  60.0000 13.56072486    13
CTC2_L_00337021-04
1 75182U 26628WQ  26070.40846065  .00000000  00000+0  00000-0 0  9994
2 75182  95.0000 240.0000 0000000   0.0000 150.0000 13.56072486    14
CTC2_L_00337022-01
1 75183U 24233XU  26070.40846065  .00000000  00000+0  00000-0 0  9995
2 75183  95.0000 252.0000 0000000   0.0000 252.0000 13.56072486    11
CTC2_L_00337022-02
1 75184U 23625TI  26070.40846065  .00000000  00000+0  00000-0 0  9990
2 75184  95.0000 252.0000 0000000   0.0000 342.0000 13.56072486    12
CTC2_L_00337022-03
1 75185U 25715VP  26070.40846065  .00000000  00000+0  00000-0 0  9993
2 75185  95.0000 252.0000 0000000   0.0000  72.0000 13.56072486    13
CTC2_L_00337022-04
1 75186U 22542GH  26070.40846065  .00000000  00000+0  00000-0 0  9999
2 75186  95.0000 252.0000 0000000   0.0000 162.0000 13.56072486    14
CTC2_L_00337023-01
1 75187U 23802EN  26070.40846065  .00000000  00000+0  00000-0 0  9990
2 75187  95.0000 264.0000 0000000   0.0000 264.0000 13.56072486    11
CTC2_L_00337023-02
1 75188U 24226RB  26070.40846065  .00000000  00000+0  00000-0 0  9992
2 75188  95.0000 264.0000 0000000   0.0000 354.0000 13.56072486    12
CTC2_L_00337023-03
1 75189U 25074SS  26070.40846065  .00000000  00000+0  00000-0 0  9995
2 75189  95.0000 264.0000 0000000   0.0000  84.0000 13.56072486    13
CTC2_L_00337023-04
1 75190U 26536TJ  26070.40846065  .00000000  00000+0  00000-0 0  9991
2 75190  95.0000 264.0000 0000000   0.0000 174.0000 13.56072486    15
CTC2_L_00337024-01
1 75191U 23780XS  26070.40846065  .00000000  00000+0  00000-0 0  9990
2 75191  95.0000 276.0000 0000000   0.0000 276.0000 13.56072486    12
CTC2_L_00337024-02
1 75192U 26892LQ  26070.40846065  .00000000  00000+0  00000-0 0  9998
2 75192  95.0000 276.0000 0000000   0.0000   6.0000 13.56072486    14
CTC2_L_00337024-03
1 75193U 24912RP  26070.40846065  .00000000  00000+0  00000-0 0  9990
2 75193  95.0000 276.0000 0000000   0.0000  96.0000 13.56072486    14
CTC2_L_00337024-04
1 75194U 23647QQ  26070.40846065  .00000000  00000+0  00000-0 0  9995
2 75194  95.0000 276.0000 0000000   0.0000 186.0000 13.56072486    15
CTC2_L_00337025-01
1 75195U 23400HL  26070.40846065  .00000000  00000+0  00000-0 0  9993
2 75195  95.0000 288.0000 0000000   0.0000 288.0000 13.56072486    12
CTC2_L_00337025-02
1 75196U 24362QK  26070.40846065  .00000000  00000+0  00000-0 0  9992
2 75196  95.0000 288.0000 0000000   0.0000  18.0000 13.56072486    14
CTC2_L_00337025-03
1 75197U 24529HH  26070.40846065  .00000000  00000+0  00000-0 0  9998
2 75197  95.0000 288.0000 0000000   0.0000 108.0000 13.56072486    15
CTC2_L_00337025-04
1 75198U 24934VS  26070.40846065  .00000000  00000+0  00000-0 0  9999
2 75198  95.0000 288.0000 0000000   0.0000 198.0000 13.56072486    15
CTC2_L_00337026-01
1 75199U 22779TB  26070.40846065  .00000000  00000+0  00000-0 0  9995
2 75199  95.0000 300.0000 0000000   0.0000 300.0000 13.56072486    16
CTC2_L_00337026-02
1 75200U 24762LO  26070.40846065  .00000000  00000+0  00000-0 0  9992
2 75200  95.0000 300.0000 0000000   0.0000  30.0000 13.56072486    19
CTC2_L_00337026-03
1 75201U 25739WI  26070.40846065  .00000000  00000+0  00000-0 0  9998
2 75201  95.0000 300.0000 0000000   0.0000 120.0000 13.56072486    10
CTC2_L_00337026-04
1 75202U 25695LG  26070.40846065  .00000000  00000+0  00000-0 0  9990
2 75202  95.0000 300.0000 0000000   0.0000 210.0000 13.56072486    11
CTC2_L_00337027-01
1 75203U 24357TM  26070.40846065  .00000000  00000+0  00000-0 0  9995
2 75203  95.0000 312.0000 0000000   0.0000 312.0000 13.56072486    18
CTC2_L_00337027-02
1 75204U 26790HG  26070.40846065  .00000000  00000+0  00000-0 0  9999
2 75204  95.0000 312.0000 0000000   0.0000  42.0000 13.56072486    19
CTC2_L_00337027-03
1 75205U 23451HG  26070.40846065  .00000000  00000+0  00000-0 0  9991
2 75205  95.0000 312.0000 0000000   0.0000 132.0000 13.56072486    10
CTC2_L_00337027-04
1 75206U 25617NN  26070.40846065  .00000000  00000+0  00000-0 0  9998
2 75206  95.0000 312.0000 0000000   0.0000 222.0000 13.56072486    11
CTC2_L_00337028-01
1 75207U 24878JS  26070.40846065  .00000000  00000+0  00000-0 0  9997
2 75207  95.0000 324.0000 0000000   0.0000 324.0000 13.56072486    18
CTC2_L_00337028-02
1 75208U 22323ML  26070.40846065  .00000000  00000+0  00000-0 0  9991
2 75208  95.0000 324.0000 0000000   0.0000  54.0000 13.56072486    19
CTC2_L_00337028-03
1 75209U 24675QE  26070.40846065  .00000000  00000+0  00000-0 0  9994
2 75209  95.0000 324.0000 0000000   0.0000 144.0000 13.56072486    10
CTC2_L_00337028-04
1 75210U 22646SN  26070.40846065  .00000000  00000+0  00000-0 0  9992
2 75210  95.0000 324.0000 0000000   0.0000 234.0000 13.56072486    12
CTC2_L_00337029-01
1 75211U 24650UN  26070.40846065  .00000000  00000+0  00000-0 0  9990
2 75211  95.0000 336.0000 0000000   0.0000 336.0000 13.56072486    19
CTC2_L_00337029-02
1 75212U 23039MM  26070.40846065  .00000000  00000+0  00000-0 0  9991
2 75212  95.0000 336.0000 0000000   0.0000  66.0000 13.56072486    10
CTC2_L_00337029-03
1 75213U 24126BL  26070.40846065  .00000000  00000+0  00000-0 0  9990
2 75213  95.0000 336.0000 0000000   0.0000 156.0000 13.56072486    11
CTC2_L_00337029-04
1 75214U 26993LL  26070.40846065  .00000000  00000+0  00000-0 0  9995
2 75214  95.0000 336.0000 0000000   0.0000 246.0000 13.56072486    12
CTC2_L_00337030-01
1 75215U 23151YD  26070.40846065  .00000000  00000+0  00000-0 0  9999
2 75215  95.0000 348.0000 0000000   0.0000 348.0000 13.56072486    19
CTC2_L_00337030-02
1 75216U 22633NM  26070.40846065  .00000000  00000+0  00000-0 0  9994
2 75216  95.0000 348.0000 0000000   0.0000  78.0000 13.56072486    10
CTC2_L_00337030-03
1 75217U 24404LZ  26070.40846065  .00000000  00000+0  00000-0 0  9993
2 75217  95.0000 348.0000 0000000   0.0000 168.0000 13.56072486    11
CTC2_L_00337030-04
1 75218U 25387PJ  26070.40846065  .00000000  00000+0  00000-0 0  9995
2 75218  95.0000 348.0000 0000000   0.0000 258.0000 13.56072486    12
